COSMOS 2228             
1 22286U 92094A   25334.12132713  .00002603  00000+0  22564-3 0  9993
2 22286  82.5175 332.6090 0016292 278.1393  81.7981 14.96635700761162
SL-16 R/B               
1 22566U 93016B   25333.98309088 -.00000108  00000+0 -30829-4 0  9997
2 22566  71.0093  64.5949 0007991 121.8144 238.3758 14.15289145688061
COSMOS 2242             
1 22626U 93024A   25334.06159647  .00002177  00000+0  19142-3 0  9997
2 22626  82.5199   1.9630 0014818 281.4520  78.5037 14.96024514765494
SL-16 R/B               
1 22803U 93059B   25334.09793108  .00000110  00000+0  78421-4 0  9992
2 22803  70.9894 221.1434 0017190 354.3396   5.7531 14.17208238665422
ARIANE 40 R/B           
1 22830U 93061H   25334.11801618  .00000285  00000+0  12044-3 0  9995
2 22830  98.5093  39.8768 0010172 213.9675 146.0859 14.32788206679844
COSMOS 2278             
1 23087U 94023A   25334.15901498  .00000030  00000+0  40185-4 0  9996
2 23087  71.0556  23.3315 0009055 197.6576 162.4233 14.14350436630734
SL-16 R/B               
1 23088U 94023B   25334.10955861  .00000343  00000+0  20155-3 0  9996
2 23088  70.9997 280.0088 0001083  91.4514 268.6733 14.14995107632003
SL-16 R/B               
1 23343U 94074B   25334.08505965  .00000607  00000+0  88347-4 0  9990
2 23343  97.7217   3.8919 0006630 173.2412 203.1823 14.79266719672528
SL-16 R/B               
1 23405U 94077B   25334.05929881 -.00000198  00000+0 -76730-4 0  9996
2 23405  70.9811 202.0895 0004564 294.2319  65.8327 14.15545947602135
ARIANE 40+ R/B          
1 23561U 95021B   25334.15110080  .00000380  00000+0  13548-3 0  9991
2 23561  98.4667  41.8911 0007836  82.9102 306.9286 14.39680010604926
SL-16 R/B               
1 23705U 95058B   25334.13204329  .00000218  00000+0  13590-3 0  9996
2 23705  71.0224  29.2749 0014874 271.0435  88.8984 14.15476041553768
SL-16 R/B               
1 24298U 96051B   25334.16555875 -.00000021  00000+0  15607-4 0  9991
2 24298  70.7605  25.8999 0019027 276.9066  82.9889 14.12394529507599
