CCSDS_OMM_VERS = 2.0
CREATION_DATE  = 
ORIGINATOR     = 

OBJECT_NAME    = COSMOS 2228
OBJECT_ID      = 1992-094A
CENTER_NAME    = EARTH
REF_FRAME      = TEME
TIME_SYSTEM    = UTC
MEAN_ELEMENT_THEORY = SGP/SGP4

EPOCH          = 2025-11-30T02:54:42.664032
MEAN_MOTION    = 14.96635700
ECCENTRICITY   = .0016292
INCLINATION    = 82.5175
RA_OF_ASC_NODE = 332.6090
ARG_OF_PERICENTER = 278.1393
MEAN_ANOMALY   = 81.7981

EPHEMERIS_TYPE = 0
CLASSIFICATION_TYPE = U
NORAD_CAT_ID   = 22286
ELEMENT_SET_NO = 999
REV_AT_EPOCH   = 76116
BSTAR          = .22564E-3
MEAN_MOTION_DOT = .2603E-4
MEAN_MOTION_DDOT = 0

CCSDS_OMM_VERS = 2.0
CREATION_DATE  = 
ORIGINATOR     = 

OBJECT_NAME    = SL-16 R/B
OBJECT_ID      = 1993-016B
CENTER_NAME    = EARTH
REF_FRAME      = TEME
TIME_SYSTEM    = UTC
MEAN_ELEMENT_THEORY = SGP/SGP4

EPOCH          = 2025-11-29T23:35:39.052032
MEAN_MOTION    = 14.15289145
ECCENTRICITY   = .0007991
INCLINATION    = 71.0093
RA_OF_ASC_NODE = 64.5949
ARG_OF_PERICENTER = 121.8144
MEAN_ANOMALY   = 238.3758

EPHEMERIS_TYPE = 0
CLASSIFICATION_TYPE = U
NORAD_CAT_ID   = 22566
ELEMENT_SET_NO = 999
REV_AT_EPOCH   = 68806
BSTAR          = -.30829E-4
MEAN_MOTION_DOT = -.108E-5
MEAN_MOTION_DDOT = 0

CCSDS_OMM_VERS = 2.0
CREATION_DATE  = 
ORIGINATOR     = 

OBJECT_NAME    = COSMOS 2242
OBJECT_ID      = 1993-024A
CENTER_NAME    = EARTH
REF_FRAME      = TEME
TIME_SYSTEM    = UTC
MEAN_ELEMENT_THEORY = SGP/SGP4

EPOCH          = 2025-11-30T01:28:41.935008
MEAN_MOTION    = 14.96024514
ECCENTRICITY   = .0014818
INCLINATION    = 82.5199
RA_OF_ASC_NODE = 1.9630
ARG_OF_PERICENTER = 281.4520
MEAN_ANOMALY   = 78.5037

EPHEMERIS_TYPE = 0
CLASSIFICATION_TYPE = U
NORAD_CAT_ID   = 22626
ELEMENT_SET_NO = 999
REV_AT_EPOCH   = 76549
BSTAR          = .19142E-3
MEAN_MOTION_DOT = .2177E-4
MEAN_MOTION_DDOT = 0

CCSDS_OMM_VERS = 2.0
CREATION_DATE  = 
ORIGINATOR     = 

OBJECT_NAME    = SL-16 R/B
OBJECT_ID      = 1993-059B
CENTER_NAME    = EARTH
REF_FRAME      = TEME
TIME_SYSTEM    = UTC
MEAN_ELEMENT_THEORY = SGP/SGP4

EPOCH          = 2025-11-30T02:21:01.245312
MEAN_MOTION    = 14.17208238
ECCENTRICITY   = .001719
INCLINATION    = 70.9894
RA_OF_ASC_NODE = 221.1434
ARG_OF_PERICENTER = 354.3396
MEAN_ANOMALY   = 5.7531

EPHEMERIS_TYPE = 0
CLASSIFICATION_TYPE = U
NORAD_CAT_ID   = 22803
ELEMENT_SET_NO = 999
REV_AT_EPOCH   = 66542
BSTAR          = .78421E-4
MEAN_MOTION_DOT = .11E-5
MEAN_MOTION_DDOT = 0

CCSDS_OMM_VERS = 2.0
CREATION_DATE  = 
ORIGINATOR     = 

OBJECT_NAME    = ARIANE 40 R/B
OBJECT_ID      = 1993-061H
CENTER_NAME    = EARTH
REF_FRAME      = TEME
TIME_SYSTEM    = UTC
MEAN_ELEMENT_THEORY = SGP/SGP4

EPOCH          = 2025-11-30T02:49:56.597952
MEAN_MOTION    = 14.32788206
ECCENTRICITY   = .0010172
INCLINATION    = 98.5093
RA_OF_ASC_NODE = 39.8768
ARG_OF_PERICENTER = 213.9675
MEAN_ANOMALY   = 146.0859

EPHEMERIS_TYPE = 0
CLASSIFICATION_TYPE = U
NORAD_CAT_ID   = 22830
ELEMENT_SET_NO = 999
REV_AT_EPOCH   = 67984
BSTAR          = .12044E-3
MEAN_MOTION_DOT = .285E-5
MEAN_MOTION_DDOT = 0

CCSDS_OMM_VERS = 2.0
CREATION_DATE  = 
ORIGINATOR     = 

OBJECT_NAME    = COSMOS 2278
OBJECT_ID      = 1994-023A
CENTER_NAME    = EARTH
REF_FRAME      = TEME
TIME_SYSTEM    = UTC
MEAN_ELEMENT_THEORY = SGP/SGP4

EPOCH          = 2025-11-30T03:48:58.894272
MEAN_MOTION    = 14.14350436
ECCENTRICITY   = .0009055
INCLINATION    = 71.0556
RA_OF_ASC_NODE = 23.3315
ARG_OF_PERICENTER = 197.6576
MEAN_ANOMALY   = 162.4233

EPHEMERIS_TYPE = 0
CLASSIFICATION_TYPE = U
NORAD_CAT_ID   = 23087
ELEMENT_SET_NO = 999
REV_AT_EPOCH   = 63073
BSTAR          = .40185E-4
MEAN_MOTION_DOT = .3E-6
MEAN_MOTION_DDOT = 0

CCSDS_OMM_VERS = 2.0
CREATION_DATE  = 
ORIGINATOR     = 

OBJECT_NAME    = SL-16 R/B
OBJECT_ID      = 1994-023B
CENTER_NAME    = EARTH
REF_FRAME      = TEME
TIME_SYSTEM    = UTC
MEAN_ELEMENT_THEORY = SGP/SGP4

EPOCH          = 2025-11-30T02:37:45.863904
MEAN_MOTION    = 14.14995107
ECCENTRICITY   = .0001083
INCLINATION    = 70.9997
RA_OF_ASC_NODE = 280.0088
ARG_OF_PERICENTER = 91.4514
MEAN_ANOMALY   = 268.6733

EPHEMERIS_TYPE = 0
CLASSIFICATION_TYPE = U
NORAD_CAT_ID   = 23088
ELEMENT_SET_NO = 999
REV_AT_EPOCH   = 63200
BSTAR          = .20155E-3
MEAN_MOTION_DOT = .343E-5
MEAN_MOTION_DDOT = 0

CCSDS_OMM_VERS = 2.0
CREATION_DATE  = 
ORIGINATOR     = 

OBJECT_NAME    = SL-16 R/B
OBJECT_ID      = 1994-074B
CENTER_NAME    = EARTH
REF_FRAME      = TEME
TIME_SYSTEM    = UTC
MEAN_ELEMENT_THEORY = SGP/SGP4

EPOCH          = 2025-11-30T02:02:29.153760
MEAN_MOTION    = 14.79266719
ECCENTRICITY   = .000663
INCLINATION    = 97.7217
RA_OF_ASC_NODE = 3.8919
ARG_OF_PERICENTER = 173.2412
MEAN_ANOMALY   = 203.1823

EPHEMERIS_TYPE = 0
CLASSIFICATION_TYPE = U
NORAD_CAT_ID   = 23343
ELEMENT_SET_NO = 999
REV_AT_EPOCH   = 67252
BSTAR          = .88347E-4
MEAN_MOTION_DOT = .607E-5
MEAN_MOTION_DDOT = 0

CCSDS_OMM_VERS = 2.0
CREATION_DATE  = 
ORIGINATOR     = 

OBJECT_NAME    = SL-16 R/B
OBJECT_ID      = 1994-077B
CENTER_NAME    = EARTH
REF_FRAME      = TEME
TIME_SYSTEM    = UTC
MEAN_ELEMENT_THEORY = SGP/SGP4

EPOCH          = 2025-11-30T01:25:23.417184
MEAN_MOTION    = 14.15545947
ECCENTRICITY   = .0004564
INCLINATION    = 70.9811
RA_OF_ASC_NODE = 202.0895
ARG_OF_PERICENTER = 294.2319
MEAN_ANOMALY   = 65.8327

EPHEMERIS_TYPE = 0
CLASSIFICATION_TYPE = U
NORAD_CAT_ID   = 23405
ELEMENT_SET_NO = 999
REV_AT_EPOCH   = 60213
BSTAR          = -.7673E-4
MEAN_MOTION_DOT = -.198E-5
MEAN_MOTION_DDOT = 0

CCSDS_OMM_VERS = 2.0
CREATION_DATE  = 
ORIGINATOR     = 

OBJECT_NAME    = ARIANE 40+ R/B
OBJECT_ID      = 1995-021B
CENTER_NAME    = EARTH
REF_FRAME      = TEME
TIME_SYSTEM    = UTC
MEAN_ELEMENT_THEORY = SGP/SGP4

EPOCH          = 2025-11-30T03:37:35.109120
MEAN_MOTION    = 14.39680010
ECCENTRICITY   = .0007836
INCLINATION    = 98.4667
RA_OF_ASC_NODE = 41.8911
ARG_OF_PERICENTER = 82.9102
MEAN_ANOMALY   = 306.9286

EPHEMERIS_TYPE = 0
CLASSIFICATION_TYPE = U
NORAD_CAT_ID   = 23561
ELEMENT_SET_NO = 999
REV_AT_EPOCH   = 60492
BSTAR          = .13548E-3
MEAN_MOTION_DOT = .38E-5
MEAN_MOTION_DDOT = 0

CCSDS_OMM_VERS = 2.0
CREATION_DATE  = 
ORIGINATOR     = 

OBJECT_NAME    = SL-16 R/B
OBJECT_ID      = 1995-058B
CENTER_NAME    = EARTH
REF_FRAME      = TEME
TIME_SYSTEM    = UTC
MEAN_ELEMENT_THEORY = SGP/SGP4

EPOCH          = 2025-11-30T03:10:08.540256
MEAN_MOTION    = 14.15476041
ECCENTRICITY   = .0014874
INCLINATION    = 71.0224
RA_OF_ASC_NODE = 29.2749
ARG_OF_PERICENTER = 271.0435
MEAN_ANOMALY   = 88.8984

EPHEMERIS_TYPE = 0
CLASSIFICATION_TYPE = U
NORAD_CAT_ID   = 23705
ELEMENT_SET_NO = 999
REV_AT_EPOCH   = 55376
BSTAR          = .1359E-3
MEAN_MOTION_DOT = .218E-5
MEAN_MOTION_DDOT = 0

CCSDS_OMM_VERS = 2.0
CREATION_DATE  = 
ORIGINATOR     = 

OBJECT_NAME    = SL-16 R/B
OBJECT_ID      = 1996-051B
CENTER_NAME    = EARTH
REF_FRAME      = TEME
TIME_SYSTEM    = UTC
MEAN_ELEMENT_THEORY = SGP/SGP4

EPOCH          = 2025-11-30T03:58:24.276000
MEAN_MOTION    = 14.12394529
ECCENTRICITY   = .0019027
INCLINATION    = 70.7605
RA_OF_ASC_NODE = 25.8999
ARG_OF_PERICENTER = 276.9066
MEAN_ANOMALY   = 82.9889

EPHEMERIS_TYPE = 0
CLASSIFICATION_TYPE = U
NORAD_CAT_ID   = 24298
ELEMENT_SET_NO = 999
REV_AT_EPOCH   = 50759
BSTAR          = .15607E-4
MEAN_MOTION_DOT = -.21E-6
MEAN_MOTION_DDOT = 0

